OBJECT_NAME,OBJECT_ID,EPOCH,MEAN_MOTION,ECCENTRICITY,INCLINATION,RA_OF_ASC_NODE,ARG_OF_PERICENTER,MEAN_ANOMALY,EPHEMERIS_TYPE,CLASSIFICATION_TYPE,NORAD_CAT_ID,ELEMENT_SET_NO,REV_AT_EPOCH,BSTAR,MEAN_MOTION_DOT,MEAN_MOTION_DDOT
ONEWEB-0068,2020-020Y,2026-06-17T14:40:00.145056,13.11414695,.0001731,87.8894,20.9792,79.6350,280.4973,0,U,45446,999,30265,-.13482E-2,-.465E-5,0
ONEWEB-0046,2020-020Z,2026-06-17T14:27:59.579424,13.11413938,.0001975,87.8886,20.9870,78.8977,281.2373,0,U,45447,999,30266,-.60517E-3,-.202E-5,0
ONEWEB-0063,2020-020AA,2026-06-17T15:09:41.230080,13.11419007,.0002152,87.8896,20.9801,85.1706,274.9668,0,U,45448,999,30275,-.10296133E-2,-.352E-5,0
ONEWEB-0019,2020-020AB,2026-06-17T12:25:44.103648,13.11414347,.00017154,87.8888,20.9891,89.8570,270.2754,0,U,45449,999,30258,.33738117E-3,.132E-5,0
ONEWEB-0094,2020-020AC,2026-06-17T12:09:37.025856,13.17647408,.00016337,87.9140,5.7855,86.5188,273.6130,0,U,45450,999,30635,-.80263998E-4,-.18E-6,0
ONEWEB-0087,2020-020AD,2026-06-17T15:23:57.440256,13.11419444,.00016686,87.8905,20.9522,76.9476,283.1838,0,U,45451,999,30264,.76122255E-3,.282E-5,0
ONEWEB-0082,2020-020AE,2026-06-17T15:19:04.995264,13.11420095,.00018406,87.8896,20.9694,70.3220,289.8106,0,U,45452,999,30273,.24699086E-3,.1E-5,0
ONEWEB-0050,2020-020AF,2026-06-17T14:41:57.789024,14.90382413,.00030896,88.9297,233.1531,25.3062,334.8318,0,U,45453,999,34044,.18263984E-3,.1798E-4,0
ONEWEB-0034,2020-020AG,2026-06-17T16:13:11.102880,13.11413657,.00018384,87.8892,20.9714,85.3404,274.7934,0,U,45454,999,30265,.21276844E-3,.88E-6,0
ONEWEB-0060,2020-020AH,2026-06-17T15:08:16.269504,13.11417788,.00012558,87.8887,20.9784,52.6879,307.4363,0,U,45455,999,30260,-.11144067E-2,-.382E-5,0
ONEWEB-0086,2020-020AJ,2026-06-17T14:37:33.786048,13.11414602,.0001026,87.8893,20.9778,85.1071,275.0174,0,U,45456,999,30266,-.12789E-2,-.441E-5,0
ONEWEB-0088,2020-020AK,2026-06-17T15:55:53.880384,13.11416727,.00021661,87.8903,20.9400,79.4668,280.6704,0,U,45457,999,30260,.12098695E-2,.442E-5,0
ONEWEB-0102,2020-100A,2026-06-17T12:21:48.473568,13.12440815,.00016095,87.8939,350.6099,98.2237,261.9074,0,U,47258,999,26477,-.23355603E-3,-.71E-6,0
ONEWEB-0109,2020-100B,2026-06-17T21:42:54.649152,13.12441104,.00018336,87.8949,350.5156,95.9887,264.1450,0,U,47259,999,26465,-.58091397E-3,-.196E-5,0
ONEWEB-0110,2020-100C,2026-06-17T22:21:56.273184,13.12445037,.0001563,87.8949,350.4949,90.5383,269.5925,0,U,47260,999,26482,-.31190215E-3,-.99E-6,0
ONEWEB-0111,2020-100D,2026-06-17T21:16:05.047392,13.12440969,.00017604,87.8949,350.5223,88.4700,271.6630,0,U,47261,999,26465,.92913473E-3,.347E-5,0
ONEWEB-0114,2020-100E,2026-06-17T22:00:00.251712,13.12430813,.00021298,87.8954,350.5144,95.2377,264.8995,0,U,47262,999,26461,-.47198191E-2,-.1685E-4,0
ONEWEB-0117,2020-100F,2026-06-17T12:38:53.009952,13.12442818,.00017769,87.8946,350.5820,91.1062,269.0270,0,U,47263,999,26457,-.10328654E-2,-.359E-5,0
ONEWEB-0118,2020-100G,2026-06-17T22:36:35.417376,13.12444474,.00021403,87.8947,350.5025,91.4558,268.6816,0,U,47264,999,26482,.65129574E-3,.247E-5,0
ONEWEB-0119,2020-100H,2026-06-17T12:14:29.909760,13.12442515,.00018119,87.8938,350.6050,91.2257,268.9079,0,U,47265,999,26474,.28231352E-3,.114E-5,0
ONEWEB-0120,2020-100J,2026-06-17T12:48:50.371776,13.12444222,.0001879,87.8938,350.6014,96.9461,263.1881,0,U,47266,999,26477,-.10254E-2,-.356E-5,0
ONEWEB-0121,2020-100K,2026-06-17T21:40:28.265952,13.12442717,.00016922,87.8949,350.5140,81.2765,278.8556,0,U,47267,999,26473,-.44571154E-3,-.148E-5,0
ONEWEB-0122,2020-100L,2026-06-17T12:23:02.616000,13.12441865,.00017202,87.8950,350.5955,95.8647,264.2678,0,U,47268,999,26459,-.19722299E-3,-.58E-6,0
ONEWEB-0123,2020-100M,2026-06-17T12:16:55.848864,13.12443355,.00019176,87.8937,350.6037,90.5942,269.5406,0,U,47269,999,26473,.1651679E-3,.72E-6,0
ONEWEB-0124,2020-100N,2026-06-17T21:11:12.276672,13.12443764,.00017788,87.8937,350.5330,87.6789,272.4544,0,U,47270,999,26466,.10926164E-2,.406E-5,0
ONEWEB-0125,2020-100P,2026-06-17T22:29:15.341568,13.12444078,.00019423,87.8949,350.5057,82.3132,277.8217,0,U,47271,999,26473,-.47737546E-3,-.159E-5,0
ONEWEB-0126,2020-100Q,2026-06-17T21:08:58.919136,13.12442469,.00018907,87.8942,350.5322,94.8816,265.2528,0,U,47272,999,26479,.11192177E-2,.415E-5,0
ONEWEB-0127,2020-100R,2026-06-17T22:09:44.285472,13.12443207,.00018289,87.8937,350.5224,94.4451,265.6886,0,U,47273,999,26482,-.14631124E-2,-.514E-5,0
ONEWEB-0128,2020-100S,2026-06-17T22:41:27.918528,13.12444184,.00015031,87.8935,350.5322,89.5246,270.6054,0,U,47274,999,26484,.95854168E-3,.358E-5,0
ONEWEB-0129,2020-100T,2026-06-17T22:12:11.237184,13.12444013,.00024523,87.8948,350.5102,116.8713,243.2666,0,U,47275,999,26477,-.96587575E-3,-.335E-5,0
