[
  {
    "name": "ONEWEB-0068",
    "noradId": "45446",
    "line1": "1 45446U 20020Y   26168.61111279 -.00000465  00000+0 -13482-2 0  9994",
    "line2": "2 45446  87.8894  20.9792 0001731  79.6350 280.4973 13.11414695302654"
  },
  {
    "name": "ONEWEB-0046",
    "noradId": "45447",
    "line1": "1 45447U 20020Z   26168.60277291 -.00000202  00000+0 -60517-3 0  9992",
    "line2": "2 45447  87.8886  20.9870 0001975  78.8977 281.2373 13.11413938302662"
  },
  {
    "name": "ONEWEB-0063",
    "noradId": "45448",
    "line1": "1 45448U 20020AA  26168.63172720 -.00000352  00000+0 -10296-2 0  9991",
    "line2": "2 45448  87.8896  20.9801 0002152  85.1706 274.9668 13.11419007302756"
  },
  {
    "name": "ONEWEB-0019",
    "noradId": "45449",
    "line1": "1 45449U 20020AB  26168.51787157  .00000132  00000+0  33738-3 0  9996",
    "line2": "2 45449  87.8888  20.9891 0001715  89.8570 270.2754 13.11414347302589"
  },
  {
    "name": "ONEWEB-0094",
    "noradId": "45450",
    "line1": "1 45450U 20020AC  26168.50667854 -.00000018  00000+0 -80264-4 0  9990",
    "line2": "2 45450  87.9140   5.7855 0001633  86.5188 273.6130 13.17647408306358"
  },
  {
    "name": "ONEWEB-0087",
    "noradId": "45451",
    "line1": "1 45451U 20020AD  26168.64163704  .00000282  00000+0  76122-3 0  9999",
    "line2": "2 45451  87.8905  20.9522 0001668  76.9476 283.1838 13.11419444302648"
  },
  {
    "name": "ONEWEB-0082",
    "noradId": "45452",
    "line1": "1 45452U 20020AE  26168.63825226  .00000100  00000+0  24699-3 0  9994",
    "line2": "2 45452  87.8896  20.9694 0001840  70.3220 289.8106 13.11420095302730"
  },
  {
    "name": "ONEWEB-0050",
    "noradId": "45453",
    "line1": "1 45453U 20020AF  26168.61247441  .00001798  00000+0  18264-3 0  9995",
    "line2": "2 45453  88.9297 233.1531 0003089  25.3062 334.8318 14.90382413340442"
  },
  {
    "name": "ONEWEB-0034",
    "noradId": "45454",
    "line1": "1 45454U 20020AG  26168.67582295  .00000088  00000+0  21277-3 0  9990",
    "line2": "2 45454  87.8892  20.9714 0001838  85.3404 274.7934 13.11413657302657"
  },
  {
    "name": "ONEWEB-0060",
    "noradId": "45455",
    "line1": "1 45455U 20020AH  26168.63074386 -.00000382  00000+0 -11144-2 0  9994",
    "line2": "2 45455  87.8887  20.9784 0001255  52.6879 307.4363 13.11417788302609"
  },
  {
    "name": "ONEWEB-0086",
    "noradId": "45456",
    "line1": "1 45456U 20020AJ  26168.60941882 -.00000441  00000+0 -12789-2 0  9998",
    "line2": "2 45456  87.8893  20.9778 0001026  85.1071 275.0174 13.11414602302669"
  },
  {
    "name": "ONEWEB-0088",
    "noradId": "45457",
    "line1": "1 45457U 20020AK  26168.66381806  .00000442  00000+0  12099-2 0  9992",
    "line2": "2 45457  87.8903  20.9400 0002166  79.4668 280.6704 13.11416727302603"
  },
  {
    "name": "ONEWEB-0102",
    "noradId": "47258",
    "line1": "1 47258U 20100A   26168.51514437 -.00000071  00000+0 -23356-3 0  9993",
    "line2": "2 47258  87.8939 350.6099 0001609  98.2237 261.9074 13.12440815264775"
  },
  {
    "name": "ONEWEB-0109",
    "noradId": "47259",
    "line1": "1 47259U 20100B   26168.90479918 -.00000196  00000+0 -58091-3 0  9993",
    "line2": "2 47259  87.8949 350.5156 0001833  95.9887 264.1450 13.12441104264656"
  },
  {
    "name": "ONEWEB-0110",
    "noradId": "47260",
    "line1": "1 47260U 20100C   26168.93190131 -.00000099  00000+0 -31190-3 0  9998",
    "line2": "2 47260  87.8949 350.4949 0001563  90.5383 269.5925 13.12445037264823"
  },
  {
    "name": "ONEWEB-0111",
    "noradId": "47261",
    "line1": "1 47261U 20100D   26168.88616953  .00000347  00000+0  92913-3 0  9992",
    "line2": "2 47261  87.8949 350.5223 0001760  88.4700 271.6630 13.12440969264655"
  },
  {
    "name": "ONEWEB-0114",
    "noradId": "47262",
    "line1": "1 47262U 20100E   26168.91666958 -.00001685  00000+0 -47198-2 0  9999",
    "line2": "2 47262  87.8954 350.5144 0002129  95.2377 264.8995 13.12430813264611"
  },
  {
    "name": "ONEWEB-0117",
    "noradId": "47263",
    "line1": "1 47263U 20100F   26168.52700243 -.00000359  00000+0 -10329-2 0  9996",
    "line2": "2 47263  87.8946 350.5820 0001776  91.1062 269.0270 13.12442818264573"
  },
  {
    "name": "ONEWEB-0118",
    "noradId": "47264",
    "line1": "1 47264U 20100G   26168.94207659  .00000247  00000+0  65130-3 0  9991",
    "line2": "2 47264  87.8947 350.5025 0002140  91.4558 268.6816 13.12444474264820"
  },
  {
    "name": "ONEWEB-0119",
    "noradId": "47265",
    "line1": "1 47265U 20100H   26168.51006840  .00000114  00000+0  28231-3 0  9998",
    "line2": "2 47265  87.8938 350.6050 0001811  91.2257 268.9079 13.12442515264747"
  },
  {
    "name": "ONEWEB-0120",
    "noradId": "47266",
    "line1": "1 47266U 20100J   26168.53391634 -.00000356  00000+0 -10254-2 0  9994",
    "line2": "2 47266  87.8938 350.6014 0001879  96.9461 263.1881 13.12444222264779"
  },
  {
    "name": "ONEWEB-0121",
    "noradId": "47267",
    "line1": "1 47267U 20100K   26168.90310493 -.00000148  00000+0 -44571-3 0  9999",
    "line2": "2 47267  87.8949 350.5140 0001692  81.2765 278.8556 13.12442717264733"
  },
  {
    "name": "ONEWEB-0122",
    "noradId": "47268",
    "line1": "1 47268U 20100L   26168.51600250 -.00000058  00000+0 -19722-3 0  9990",
    "line2": "2 47268  87.8950 350.5955 0001720  95.8647 264.2678 13.12441865264593"
  },
  {
    "name": "ONEWEB-0123",
    "noradId": "47269",
    "line1": "1 47269U 20100M   26168.51175751  .00000072  00000+0  16517-3 0  9997",
    "line2": "2 47269  87.8937 350.6037 0001917  90.5942 269.5406 13.12443355264738"
  },
  {
    "name": "ONEWEB-0124",
    "noradId": "47270",
    "line1": "1 47270U 20100N   26168.88278098  .00000406  00000+0  10926-2 0  9995",
    "line2": "2 47270  87.8937 350.5330 0001778  87.6789 272.4544 13.12443764264668"
  },
  {
    "name": "ONEWEB-0125",
    "noradId": "47271",
    "line1": "1 47271U 20100P   26168.93698312 -.00000159  00000+0 -47738-3 0  9996",
    "line2": "2 47271  87.8949 350.5057 0001942  82.3132 277.8217 13.12444078264738"
  },
  {
    "name": "ONEWEB-0126",
    "noradId": "47272",
    "line1": "1 47272U 20100Q   26168.88123749  .00000415  00000+0  11192-2 0  9995",
    "line2": "2 47272  87.8942 350.5322 0001890  94.8816 265.2528 13.12442469264790"
  },
  {
    "name": "ONEWEB-0127",
    "noradId": "47273",
    "line1": "1 47273U 20100R   26168.92342923 -.00000514  00000+0 -14631-2 0  9991",
    "line2": "2 47273  87.8937 350.5224 0001828  94.4451 265.6886 13.12443207264824"
  },
  {
    "name": "ONEWEB-0128",
    "noradId": "47274",
    "line1": "1 47274U 20100S   26168.94546202  .00000358  00000+0  95854-3 0  9991",
    "line2": "2 47274  87.8935 350.5322 0001503  89.5246 270.6054 13.12444184264849"
  },
  {
    "name": "ONEWEB-0129",
    "noradId": "47275",
    "line1": "1 47275U 20100T   26168.92513006 -.00000335  00000+0 -96588-3 0  9998",
    "line2": "2 47275  87.8948 350.5102 0002452 116.8713 243.2666 13.12444013264775"
  }
]